[{"OBJECT_NAME":"STARLINK-31871","OBJECT_ID":"2024-084V","EPOCH":"2026-03-09T07:03:35.020512","MEAN_MOTION":15.27566683,"ECCENTRICITY":4.782e-5,"INCLINATION":43.0001,"RA_OF_ASC_NODE":43.9358,"ARG_OF_PERICENTER":237.1288,"MEAN_ANOMALY":122.9518,"EPHEMERIS_TYPE":0,"CLASSIFICATION_TYPE":"U","NORAD_CAT_ID":59673,"ELEMENT_SET_NO":999,"REV_AT_EPOCH":10431,"BSTAR":-6.424609e-6,"MEAN_MOTION_DOT":-4.38e-6,"MEAN_MOTION_DDOT":0},{"OBJECT_NAME":"OBJECT D","OBJECT_ID":"2024-174D","EPOCH":"2026-03-10T00:15:10.483200","MEAN_MOTION":15.28039787,"ECCENTRICITY":0.00110644,"INCLINATION":97.4441,"RA_OF_ASC_NODE":80.4677,"ARG_OF_PERICENTER":212.9968,"MEAN_ANOMALY":147.0582,"EPHEMERIS_TYPE":0,"CLASSIFICATION_TYPE":"U","NORAD_CAT_ID":61241,"ELEMENT_SET_NO":999,"REV_AT_EPOCH":8076,"BSTAR":0.00036340099,"MEAN_MOTION_DOT":9.884e-5,"MEAN_MOTION_DDOT":0}]
